name/first,name/last,street,city,state,zip
Eugene,McCarthy,Koblu Pass,Hifawat,KY,18407
Jennie,Myers,Pibba Loop,Orupiwob,MO,62103
Eric,Thornton,Baza View,Hehpeeb,MD,77217
Addie,Oliver,Upne Ridge,Erzubar,AZ,26396
Mamie,Sharp,Hemac Heights,Vonunwe,TN,70412
Addie,Nash,Hunri Turnpike,Cuvregco,CT,08801
Mario,Wallace,Gesehi Manor,Selonah,VA,23992
Jeremy,Rose,Monrav View,Riavakop,ME,01441
Jeanette,Johnston,Vodpa Glen,Ucoibowe,FL,26133
Lawrence,Wheeler,Leac Turnpike,Tifabcum,CO,57801
Shane,Christensen,Joupo Square,Hudnelcic,CA,40263
Randall,Becker,Jibir Boulevard,Wumijeh,CA,24379
Gussie,Estrada,Hecva View,Baidba,MT,48407
George,Ballard,Padof Court,Veoweacu,AK,32831
Fannie,Jackson,Zimuh Boulevard,Ipwoaf,MT,09289
Bettie,Wade,Jocsuf Grove,Lopire,TN,52522
Richard,Clarke,Reca Pass,Oketusfin,AL,59247
Augusta,Moody,Zazug Park,Goerfed,PA,75936
Eunice,Tucker,Ogoka Road,Uwaapolut,IL,30676
Sophia,Reese,Emfiz Drive,Guhivak,WY,25558
Ryan,Hammond,Gipic Drive,Hebetmar,MT,60400
Sean,Webster,Fande Square,Povlesud,NE,64583
Scott,Brewer,Ribzal Heights,Zeejsu,MO,08531
Christian,Lyons,Dicod Trail,Fuwuphe,SC,16560
Lucile,Torres,Jurme Court,Ehrukfih,WY,21106
Edith,Hale,Elci Mill,Ducijde,AK,85382
Daisy,Fuller,Wucrem Terrace,Uhbuicu,CA,35332
Nancy,Watkins,Wegi Court,Bokvavag,LA,78118
Bradley,Swanson,Zusiv Avenue,Corismev,MD,59498
Beatrice,Wells,Jiwum Grove,Terulu,OR,99385
Vincent,Clark,Zejet Loop,Lidkeszi,WA,10447
Eunice,Nash,Lepdeg Terrace,Juplepdak,MN,90774
Mittie,Hunt,Macet Point,Pizbaje,MS,52729
Lettie,McCarthy,Tupij Mill,Kocoam,IN,94320
Gordon,May,Nebcih Square,Pimuzruv,MS,47376
Phillip,Ball,Bepi Point,Dasawuvo,AZ,83346
Marc,Valdez,Gives Court,Nesima,WV,75399
Stella,Olson,Dasedo Pike,Honajzu,OH,75538
Calvin,Lambert,Jeofi Circle,Zoopro,NH,90292
Ralph,Evans,Lage Trail,Nugalas,IN,24049
Rebecca,Flowers,Juba Manor,Raamho,NM,43331
Miguel,Morris,Noctoj Point,Nempepom,WY,27549
Vernon,Hunt,Jioc Court,Jufazvi,NM,89417
Luke,Bell,Ogiuw Junction,Fuzavme,OH,66002
Ophelia,Thomas,Riharu Court,Ruvecwim,LA,73563
Blake,Schmidt,Kuwob Extension,Webinmos,TN,73612
Ruby,Copeland,Hujaj Pike,Retpuvfur,CO,24914
Georgia,Castillo,Efvof Lane,Lupradda,IL,57514
Ryan,Hudson,Diidi Road,Famewvad,CO,25244
Johnny,Payne,Izog Parkway,Nadzabgoz,AR,78888
Christopher,Watts,Cijar Path,Koditav,GA,29147
Cornelia,Lawson,Roffuh Place,Vekzufsi,ND,22944
Rhoda,Douglas,Fufla Extension,Novaap,NY,71462
Vernon,Wagner,Gabhoc River,Uckilgu,IN,39690
Jared,Todd,Bihvam Parkway,Uwimekkuf,TN,17658
Chester,Chapman,Nagir Key,Oguatekal,NY,13664
Victor,Williams,Meduh Extension,Lepotan,KY,91453
Lucile,Gibbs,Gofo Place,Uprela,NM,29881
Rosetta,Wilkerson,Cuafe Center,Hepedkem,SC,65498
Ralph,Hill,Jactu View,Nijese,NY,50462
Sam,Jimenez,Erajo Street,Ahpesof,CA,40686
May,Reese,Lelu Parkway,Nunosu,NM,86680
Aiden,Maldonado,Ejeg View,Ragtela,SC,39880
Benjamin,Bowers,Mofa Manor,Nazoge,IN,57238
Rodney,Smith,Jowhe Key,Goarfis,NY,71120
Ada,Cannon,Coeb Pass,Danulo,UT,65810
Annie,Gonzalez,Zufo Key,Iduvimhi,OK,19413
Hester,Watkins,Genow Way,Gicabi,OK,88812
Essie,Wilkerson,Pomo Plaza,Bedasmel,FL,57941
Linnie,Gonzalez,Fogcod Circle,Naguruf,NC,24151
Nicholas,Luna,Vazzu Key,Iwluklak,ME,65308
Gabriel,McGee,Hadce Pass,Wurgavsa,FL,79923
Miguel,Holmes,Isoufu Junction,Tuvahi,WI,03987
Luella,James,Vejdak Ridge,Helfadzo,FL,23790
Victor,Maldonado,Vahil Circle,Fogicineh,TX,55596
Genevieve,Lyons,Nuuk Court,Vigagup,SC,64419
Jayden,Bowen,Purhac Boulevard,Suhelzid,MD,28970
Ronnie,Schultz,Sita Lane,Ilofewro,DC,61323
Winnie,Barker,Hinec Turnpike,Mahbuge,NE,28661
Devin,Boyd,Mogu View,Fizecju,KS,01491
Ian,Reeves,Volso Court,Umeulcuk,NC,49727
Kate,Patterson,Tuez View,Zelcikwon,IL,50025
Justin,Sharp,Lilu Road,Jagmuwdit,VA,97345
Susan,Underwood,Kacoma Court,Gakjegak,MN,71039
Harry,Copeland,Wina Mill,Rokgihawe,PA,63075
Luis,Greene,Nulu Plaza,Lobeut,AR,71396
Bernice,Davidson,Fuke Ridge,Viwubefe,TX,91019
Betty,Massey,Ewez Place,Vosapbu,WY,72376
Eddie,Clarke,Opaec Ridge,Kepiluge,CO,04478
Myrtle,Fitzgerald,Nibeki Grove,Gigarihu,ID,29606
Eula,Wagner,Cibfum Drive,Vamevme,NE,16672
Amelia,Warner,Wedez View,Dejkodu,NJ,25950
Gussie,Maxwell,Mejmun Place,Notezpa,IA,16653
Alta,Harrington,Mici Avenue,Mionuda,WY,67756
Billy,Miles,Aceem Pike,Nejmimla,KY,18720
Linnie,Lawson,Cibu Pike,Fiwdifdo,WI,61906
Bettie,Mendoza,Sejzi Turnpike,Cefosas,NE,05089
Francis,Mendoza,Epjug Circle,Sekfodo,CO,41476
Don,Cannon,Mopba Turnpike,Fuhleeje,KY,88892
Brett,Benson,Fuema Circle,Hubake,MO,80421
